GLOBALSTAR M035 [-]     
1 25851U 99037A   24058.66757859 -.00000057  00000+0  25915-3 0  9998
2 25851  51.9978  35.4037 0013570 291.5526 239.7032 11.04528487 43711
GLOBALSTAR M032 [-]     
1 25852U 99037B   24058.86113751 -.00000076  00000+0 -31148-3 0  9995
2 25852  51.9919 252.9731 0010669  87.0615 273.1406 11.19049835 81571
GLOBALSTAR M051 [-]     
1 25853U 99037C   24058.50902462 -.00000089  00000+0 -41184-3 0  9997
2 25853  51.9786 108.3955 0001786  95.0286 265.0729 11.42194760 78050
GLOBALSTAR M030 [-]     
1 25854U 99037D   24058.91942489 -.00000122  00000+0 -99683-3 0  9991
2 25854  51.9889 303.7347 0002929 281.6556  78.3932 11.55086228 95125
GLOBALSTAR M048 [-]     
1 25872U 99041A   24058.93941351 -.00000070  00000+0 -96579-6 0  9991
2 25872  51.9398  24.0119 0013448  81.7061 311.2049 11.33843388 71078
GLOBALSTAR M026 [-]     
1 25873U 99041B   24058.78045265 -.00000024  00000+0  14691-2 0  9993
2 25873  51.9995 158.1229 0001762 160.2334  14.5234 11.06836772 95844
GLOBALSTAR M043 [-]     
1 25874U 99041C   24058.87270442 -.00000032  00000+0  10749-2 0  9990
2 25874  51.9388 112.8725 0013022 220.6663 311.0548 11.25674217 69341
